{
  "type": "FeatureCollection",
  "features": [
    {
      "type": "Feature",
      "properties": {
        "norad_id": 30326,
        "name": "FENGYUN 1C DEB",
        "group": "fengyun-1c-debris",
        "lat": -47.595440848703646,
        "lon": -109.9082535771647,
        "alt_km": 897.9684170638839,
        "timestamp": "2025-12-19T16:54:44.536932+00:00",
        "meta_object_name": "FENGYUN 1C DEB",
        "meta_object_id": "1999-025AAM",
        "meta_epoch": "2025-12-19T03:16:28.517952",
        "meta_mean_motion": 13.85478085,
        "meta_eccentricity": 0.01421489,
        "meta_inclination": 98.6541,
        "meta_ra_of_asc_node": 239.9675,
        "meta_arg_of_pericenter": 13.2085,
        "meta_mean_anomaly": 347.2734,
        "meta_ephemeris_type": 0,
        "meta_classification_type": "U",
        "meta_norad_cat_id": 30326,
        "meta_element_set_no": 999,
        "meta_rev_at_epoch": 95544,
        "meta_bstar": 0.00016744085,
        "meta_mean_motion_dot": 1.67e-06,
        "meta_mean_motion_ddot": 0,
        "tle_line1": "1 30326U 99025AAM 25353.13644118  .00000167  00000+0  16744-3 0  9993",
        "tle_line2": "2 30326  98.6541 239.9675 0142148  13.2085 347.2734 13.85478085955445"
      },
      "geometry": {
        "type": "Point",
        "coordinates": [
          -109.9082535771647,
          -47.595440848703646
        ]
      }
    },
    {
      "type": "Feature",
      "properties": {
        "norad_id": 30327,
        "name": "FENGYUN 1C DEB",
        "group": "fengyun-1c-debris",
        "lat": -77.24556993922299,
        "lon": -71.3052436424939,
        "alt_km": 917.1802154090219,
        "timestamp": "2025-12-19T16:54:44.536942+00:00",
        "meta_object_name": "FENGYUN 1C DEB",
        "meta_object_id": "1999-025AAN",
        "meta_epoch": "2025-12-19T04:27:36.468000",
        "meta_mean_motion": 14.18026405,
        "meta_eccentricity": 0.0117446,
        "meta_inclination": 98.4446,
        "meta_ra_of_asc_node": 247.1834,
        "meta_arg_of_pericenter": 124.067,
        "meta_mean_anomaly": 27.8716,
        "meta_ephemeris_type": 0,
        "meta_classification_type": "U",
        "meta_norad_cat_id": 30327,
        "meta_element_set_no": 999,
        "meta_rev_at_epoch": 96534,
        "meta_bstar": 0.0013127446,
        "meta_mean_motion_dot": 2.84e-05,
        "meta_mean_motion_ddot": 0,
        "tle_line1": "1 30327U 99025AAN 25353.18583875  .00002840  00000+0  13127-2 0  9992",
        "tle_line2": "2 30327  98.4446 247.1834 0117446 124.0670  27.8716 14.18026405965343"
      },
      "geometry": {
        "type": "Point",
        "coordinates": [
          -71.3052436424939,
          -77.24556993922299
        ]
      }
    },
    {
      "type": "Feature",
      "properties": {
        "norad_id": 30328,
        "name": "FENGYUN 1C DEB",
        "group": "fengyun-1c-debris",
        "lat": -62.69318001905334,
        "lon": 20.8351142093849,
        "alt_km": 862.1959853386907,
        "timestamp": "2025-12-19T16:54:44.536952+00:00",
        "meta_object_name": "FENGYUN 1C DEB",
        "meta_object_id": "1999-025AAP",
        "meta_epoch": "2025-12-18T14:34:57.874656",
        "meta_mean_motion": 14.12476571,
        "meta_eccentricity": 0.00060305,
        "meta_inclination": 98.6861,
        "meta_ra_of_asc_node": 2.5486,
        "meta_arg_of_pericenter": 137.6764,
        "meta_mean_anomaly": 342.9707,
        "meta_ephemeris_type": 0,
        "meta_classification_type": "U",
        "meta_norad_cat_id": 30328,
        "meta_element_set_no": 999,
        "meta_rev_at_epoch": 97347,
        "meta_bstar": 0.00011036762,
        "meta_mean_motion_dot": 1.61e-06,
        "meta_mean_motion_ddot": 0,
        "tle_line1": "1 30328U 99025AAP 25352.60761429  .00000161  00000+0  11037-3 0  9995",
        "tle_line2": "2 30328  98.6861   2.5486 0006030 137.6764 342.9707 14.12476571973474"
      },
      "geometry": {
        "type": "Point",
        "coordinates": [
          20.8351142093849,
          -62.69318001905334
        ]
      }
    },
    {
      "type": "Feature",
      "properties": {
        "norad_id": 30329,
        "name": "FENGYUN 1C DEB",
        "group": "fengyun-1c-debris",
        "lat": 64.46218142419002,
        "lon": -106.96066197707793,
        "alt_km": 864.8376084253068,
        "timestamp": "2025-12-19T16:54:44.536963+00:00",
        "meta_object_name": "FENGYUN 1C DEB",
        "meta_object_id": "1999-025AAQ",
        "meta_epoch": "2025-12-18T18:13:08.412096",
        "meta_mean_motion": 13.86747986,
        "meta_eccentricity": 0.01422219,
        "meta_inclination": 99.2627,
        "meta_ra_of_asc_node": 272.0745,
        "meta_arg_of_pericenter": 19.4757,
        "meta_mean_anomaly": 7.4757,
        "meta_ephemeris_type": 0,
        "meta_classification_type": "U",
        "meta_norad_cat_id": 30329,
        "meta_element_set_no": 999,
        "meta_rev_at_epoch": 95494,
        "meta_bstar": 0.00038204992,
        "meta_mean_motion_dot": 4.38e-06,
        "meta_mean_motion_ddot": 0,
        "tle_line1": "1 30329U 99025AAQ 25352.75912514  .00000438  00000+0  38205-3 0  9998",
        "tle_line2": "2 30329  99.2627 272.0745 0142221  19.4757   7.4757 13.86747986954946"
      },
      "geometry": {
        "type": "Point",
        "coordinates": [
          -106.96066197707793,
          64.46218142419002
        ]
      }
    },
    {
      "type": "Feature",
      "properties": {
        "norad_id": 30330,
        "name": "FENGYUN 1C DEB",
        "group": "fengyun-1c-debris",
        "lat": -17.074131236878525,
        "lon": -11.58168450625682,
        "alt_km": 1098.7810201891598,
        "timestamp": "2025-12-19T16:54:44.536973+00:00",
        "meta_object_name": "FENGYUN 1C DEB",
        "meta_object_id": "1999-025AAR",
        "meta_epoch": "2025-12-18T22:11:56.931072",
        "meta_mean_motion": 13.82076827,
        "meta_eccentricity": 0.01876788,
        "meta_inclination": 98.8861,
        "meta_ra_of_asc_node": 344.9288,
        "meta_arg_of_pericenter": 168.0909,
        "meta_mean_anomaly": 257.2418,
        "meta_ephemeris_type": 0,
        "meta_classification_type": "U",
        "meta_norad_cat_id": 30330,
        "meta_element_set_no": 999,
        "meta_rev_at_epoch": 94743,
        "meta_bstar": 0.0010098701,
        "meta_mean_motion_dot": 1.202e-05,
        "meta_mean_motion_ddot": 0,
        "tle_line1": "1 30330U 99025AAR 25352.92496448  .00001202  00000+0  10099-2 0  9992",
        "tle_line2": "2 30330  98.8861 344.9288 0187678 168.0909 257.2418 13.82076827947439"
      },
      "geometry": {
        "type": "Point",
        "coordinates": [
          -11.58168450625682,
          -17.074131236878525
        ]
      }
    },
    {
      "type": "Feature",
      "properties": {
        "norad_id": 30331,
        "name": "FENGYUN 1C DEB",
        "group": "fengyun-1c-debris",
        "lat": -64.50166665579376,
        "lon": -171.19649340141365,
        "alt_km": 923.3777162252663,
        "timestamp": "2025-12-19T16:54:44.536983+00:00",
        "meta_object_name": "FENGYUN 1C DEB",
        "meta_object_id": "1999-025AAS",
        "meta_epoch": "2025-12-18T23:06:56.057184",
        "meta_mean_motion": 13.97836745,
        "meta_eccentricity": 0.00960511,
        "meta_inclination": 98.9556,
        "meta_ra_of_asc_node": 27.387,
        "meta_arg_of_pericenter": 350.8709,
        "meta_mean_anomaly": 126.6714,
        "meta_ephemeris_type": 0,
        "meta_classification_type": "U",
        "meta_norad_cat_id": 30331,
        "meta_element_set_no": 999,
        "meta_rev_at_epoch": 96206,
        "meta_bstar": 0.00036778021,
        "meta_mean_motion_dot": 4.98e-06,
        "meta_mean_motion_ddot": 0,
        "tle_line1": "1 30331U 99025AAS 25352.96314881  .00000498  00000+0  36778-3 0  9996",
        "tle_line2": "2 30331  98.9556  27.3870 0096051 350.8709 126.6714 13.97836745962067"
      },
      "geometry": {
        "type": "Point",
        "coordinates": [
          -171.19649340141365,
          -64.50166665579376
        ]
      }
    },
    {
      "type": "Feature",
      "properties": {
        "norad_id": 30332,
        "name": "FENGYUN 1C DEB",
        "group": "fengyun-1c-debris",
        "lat": 75.1491504922529,
        "lon": -174.37970903598537,
        "alt_km": 842.4119093907948,
        "timestamp": "2025-12-19T16:54:44.537021+00:00",
        "meta_object_name": "FENGYUN 1C DEB",
        "meta_object_id": "1999-025AAT",
        "meta_epoch": "2025-12-18T21:30:26.793216",
        "meta_mean_motion": 13.76714912,
        "meta_eccentricity": 0.01781652,
        "meta_inclination": 99.7156,
        "meta_ra_of_asc_node": 324.5473,
        "meta_arg_of_pericenter": 87.0406,
        "meta_mean_anomaly": 328.495,
        "meta_ephemeris_type": 0,
        "meta_classification_type": "U",
        "meta_norad_cat_id": 30332,
        "meta_element_set_no": 999,
        "meta_rev_at_epoch": 94800,
        "meta_bstar": 0.00035482192,
        "meta_mean_motion_dot": 3.46e-06,
        "meta_mean_motion_ddot": 0,
        "tle_line1": "1 30332U 99025AAT 25352.89614344  .00000346  00000+0  35482-3 0  9999",
        "tle_line2": "2 30332  99.7156 324.5473 0178165  87.0406 328.4950 13.76714912948004"
      },
      "geometry": {
        "type": "Point",
        "coordinates": [
          -174.37970903598537,
          75.1491504922529
        ]
      }
    }
  ]
}